[{"OBJECT_NAME":"ASTROCAST-0103","OBJECT_ID":"2021-006CC","EPOCH":"2026-03-09T16:48:48.818592","MEAN_MOTION":15.73114428,"ECCENTRICITY":0.00057063,"INCLINATION":97.2627,"RA_OF_ASC_NODE":138.0845,"ARG_OF_PERICENTER":147.86,"MEAN_ANOMALY":212.3013,"EPHEMERIS_TYPE":0,"CLASSIFICATION_TYPE":"U","NORAD_CAT_ID":47487,"ELEMENT_SET_NO":999,"REV_AT_EPOCH":28552,"BSTAR":0.00063759595,"MEAN_MOTION_DOT":0.00087857,"MEAN_MOTION_DDOT":0},{"OBJECT_NAME":"STARLINK-11542 [DTC]","OBJECT_ID":"2025-031H","EPOCH":"2026-03-09T04:04:31.041408","MEAN_MOTION":15.70945668,"ECCENTRICITY":0.00016408,"INCLINATION":42.9996,"RA_OF_ASC_NODE":4.3221,"ARG_OF_PERICENTER":294.7165,"MEAN_ANOMALY":65.3532,"EPHEMERIS_TYPE":0,"CLASSIFICATION_TYPE":"U","NORAD_CAT_ID":62988,"ELEMENT_SET_NO":999,"REV_AT_EPOCH":6263,"BSTAR":0.0018725259,"MEAN_MOTION_DOT":0.00248236,"MEAN_MOTION_DDOT":0}]
