ASTROCAST-0103          
1 47487U 21006CC  26068.70056502  .00087857  00000+0  63760-3 0  9995
2 47487  97.2627 138.0845 0005706 147.8600 212.3013 15.73114428285528
STARLINK-11542 [DTC]    
1 62988U 25031H   26068.16980372  .00248236  00000+0  18725-2 0  9991
2 62988  42.9996   4.3221 0001640 294.7165  65.3532 15.70945668 62633
